{
 "type": "FeatureCollection",
 "features": [
  {
   "type": "Feature",
   "properties": {
    "name": "Novaya Riga test polygon: MKAD->CKAD, +/-6.5 km",
    "ru": "Полигон Новая Рига: МКАД->ЦКАД, коридор 13 км"
   },
   "geometry": {
    "type": "Polygon",
    "coordinates": [
     [
      [
       37.39655,
       55.75697
      ],
      [
       37.23966,
       55.76679
      ],
      [
       37.16703,
       55.77688
      ],
      [
       37.10572,
       55.7747
      ],
      [
       36.98346,
       55.77777
      ],
      [
       36.89816,
       55.84804
      ],
      [
       36.90977,
       55.89577
      ],
      [
       37.11023,
       55.86423
      ],
      [
       37.10184,
       55.87196
      ],
      [
       37.07354,
       55.88303
      ],
      [
       37.09428,
       55.8913
      ],
      [
       37.18717,
       55.89312
      ],
      [
       37.27134,
       55.88221
      ],
      [
       37.41945,
       55.87303
      ],
      [
       37.39655,
       55.75697
      ]
     ]
    ]
   }
  },
  {
   "type": "Feature",
   "properties": {
    "name": "M-9 axis (approx)",
    "ru": "Ось Новорижского шоссе (приблизительно)"
   },
   "geometry": {
    "type": "LineString",
    "coordinates": [
     [
      37.408,
      55.815
     ],
     [
      37.2555,
      55.8245
     ],
     [
      37.1771,
      55.835
     ],
     [
      37.1,
      55.833
     ],
     [
      37.0285,
      55.8304
     ],
     [
      37.0,
      55.86
     ],
     [
      37.01,
      55.88
     ]
    ]
   }
  },
  {
   "type": "Feature",
   "properties": {
    "name": "CKAD x M-9 interchange (approx)",
    "ru": "Развязка ЦКАД x Новорижское (приблизительно)"
   },
   "geometry": {
    "type": "Point",
    "coordinates": [
     37.01,
     55.88
    ]
   }
  },
  {
   "type": "Feature",
   "properties": {
    "name": "MKAD x M-9 junction (approx)",
    "ru": "Развязка МКАД x Новорижское (приблизительно)"
   },
   "geometry": {
    "type": "Point",
    "coordinates": [
     37.408,
     55.815
    ]
   }
  }
 ]
}